{
"type": "FeatureCollection",
"name": "communes_95",
"xy_coordinate_resolution": 1e-06,
"features": [
{"type":"Feature","properties":{"name":"Val-d'Oise"},"geometry":{"type":"Polygon","coordinates":[[[1.860517,49.015325],[1.860163,49.017251],[1.86045,49.018089],[1.861432,49.018401],[1.861752,49.01948],[1.862885,49.020709],[1.86517,49.021719],[1.862789,49.023057],[1.85927,49.02383],[1.859815,49.027431],[1.858801,49.032401],[1.855919,49.032419],[1.851075,49.033293],[1.851861,49.035374],[1.855302,49.035072],[1.855148,49.036626],[1.855622,49.036538],[1.855759,49.037637],[1.859092,49.041566],[1.861218,49.049154],[1.865062,49.057489],[1.867054,49.057233],[1.864543,49.057629],[1.862409,49.059215],[1.858444,49.060014],[1.855413,49.061129],[1.855725,49.061438],[1.854445,49.062109],[1.851546,49.062839],[1.850452,49.062155],[1.848957,49.06247],[1.848898,49.06188],[1.847365,49.062035],[1.846359,49.061241],[1.844974,49.062134],[1.844273,49.063236],[1.840917,49.064598],[1.841349,49.065301],[1.840571,49.06934],[1.844534,49.069259],[1.8391,49.069767],[1.835069,49.073217],[1.832171,49.074236],[1.82877,49.07622],[1.823426,49.076296],[1.815213,49.076425],[1.814788,49.075693],[1.810792,49.073084],[1.806074,49.073205],[1.804183,49.073817],[1.796823,49.07207],[1.798556,49.066692],[1.799605,49.066686],[1.799964,49.064326],[1.795075,49.063366],[1.797274,49.062424],[1.792626,49.060669],[1.794354,49.05856],[1.790925,49.057794],[1.785749,49.057684],[1.785855,49.057368],[1.783707,49.057217],[1.783638,49.05673],[1.779459,49.056628],[1.775314,49.05763],[1.773238,49.057028],[1.770732,49.05765],[1.769031,49.0575],[1.768451,49.058067],[1.767412,49.057887],[1.766714,49.059276],[1.765424,49.060009],[1.764426,49.059291],[1.761658,49.061879],[1.761478,49.06274],[1.761076,49.062415],[1.759912,49.063511],[1.759264,49.063088],[1.753487,49.060093],[1.757489,49.057989],[1.753139,49.056032],[1.752727,49.056203],[1.749557,49.053547],[1.751187,49.047971],[1.748,49.048444],[1.747786,49.047924],[1.746179,49.048174],[1.745793,49.047527],[1.735493,49.048737],[1.731857,49.050514],[1.722931,49.044725],[1.716732,49.049077],[1.714048,49.047457],[1.70768,49.052215],[1.707051,49.051722],[1.706728,49.052417],[1.706423,49.051993],[1.704808,49.052739],[1.705219,49.053236],[1.703739,49.052997],[1.694643,49.056062],[1.695031,49.056371],[1.693558,49.056812],[1.696176,49.060659],[1.696027,49.062831],[1.697116,49.064376],[1.697233,49.065668],[1.693036,49.069189],[1.687481,49.071858],[1.679657,49.075657],[1.672377,49.078542],[1.663966,49.079424],[1.658821,49.081288],[1.651842,49.081936],[1.648501,49.081245],[1.645748,49.081462],[1.644037,49.081553],[1.640192,49.080358],[1.640329,49.079041],[1.633764,49.079185],[1.628614,49.077993],[1.614418,49.071189],[1.612294,49.072747],[1.612798,49.073076],[1.609845,49.074719],[1.610832,49.07542],[1.608748,49.077711],[1.610094,49.078039],[1.610288,49.078767],[1.612615,49.080294],[1.61399,49.080433],[1.615714,49.082336],[1.622004,49.085099],[1.623298,49.086047],[1.619719,49.087568],[1.618811,49.08751],[1.619216,49.087711],[1.618384,49.088586],[1.619749,49.088746],[1.623165,49.090746],[1.622848,49.091043],[1.623224,49.092433],[1.622512,49.092774],[1.623419,49.093529],[1.617132,49.093872],[1.617491,49.095222],[1.618589,49.095792],[1.618427,49.096879],[1.620601,49.097354],[1.62131,49.09817],[1.620993,49.099245],[1.62155,49.09993],[1.621384,49.100719],[1.627115,49.102641],[1.626583,49.104504],[1.62805,49.106402],[1.629537,49.107397],[1.629695,49.110165],[1.632983,49.110799],[1.632199,49.111538],[1.632287,49.112034],[1.634276,49.112765],[1.634718,49.113984],[1.63985,49.116809],[1.640677,49.116162],[1.642415,49.1166],[1.644219,49.11821],[1.645204,49.120582],[1.646612,49.121406],[1.64665,49.124091],[1.647358,49.124659],[1.649807,49.125068],[1.65028,49.127059],[1.652551,49.12762],[1.65271,49.129352],[1.655673,49.12996],[1.655648,49.130762],[1.655987,49.131321],[1.657848,49.131941],[1.657858,49.133096],[1.656786,49.133949],[1.657203,49.134587],[1.658212,49.134665],[1.658322,49.135191],[1.657475,49.135657],[1.656672,49.137572],[1.654745,49.137324],[1.653425,49.13493],[1.652655,49.135002],[1.65315,49.13693],[1.652959,49.138224],[1.651481,49.138081],[1.651421,49.138748],[1.652925,49.139524],[1.652272,49.141129],[1.653218,49.142735],[1.652973,49.144678],[1.654429,49.145326],[1.654599,49.146561],[1.656071,49.147617],[1.65583,49.14847],[1.658339,49.148936],[1.659475,49.151489],[1.664101,49.153167],[1.664457,49.153428],[1.664066,49.15414],[1.660581,49.157308],[1.662945,49.159259],[1.663045,49.160806],[1.664236,49.162915],[1.66422,49.16497],[1.664759,49.166035],[1.666115,49.166446],[1.670267,49.169811],[1.668908,49.171173],[1.668309,49.173259],[1.666588,49.174973],[1.66609,49.176748],[1.667544,49.177729],[1.666935,49.178911],[1.667444,49.179671],[1.668962,49.179792],[1.669947,49.180631],[1.671372,49.18021],[1.671621,49.180751],[1.670839,49.182359],[1.67081,49.184472],[1.669503,49.185139],[1.669047,49.186667],[1.671496,49.191359],[1.670541,49.193375],[1.674801,49.196848],[1.676892,49.202532],[1.676484,49.203834],[1.674761,49.20417],[1.673156,49.20541],[1.673187,49.206245],[1.672163,49.206457],[1.674188,49.208832],[1.673758,49.209404],[1.674515,49.210578],[1.673966,49.211898],[1.676893,49.211808],[1.676424,49.212705],[1.677473,49.212835],[1.677353,49.21355],[1.679828,49.21433],[1.682743,49.216329],[1.68467,49.216577],[1.68607,49.218148],[1.688585,49.21855],[1.689944,49.220603],[1.691141,49.221233],[1.690798,49.222613],[1.69127,49.223404],[1.696405,49.224437],[1.697929,49.224042],[1.698678,49.224868],[1.698757,49.226187],[1.703859,49.228845],[1.703823,49.229535],[1.702835,49.229937],[1.703796,49.230623],[1.702589,49.231366],[1.704458,49.232184],[1.705097,49.233214],[1.704919,49.234025],[1.706361,49.234231],[1.707052,49.235806],[1.708348,49.235921],[1.709637,49.238667],[1.70939,49.241488],[1.712587,49.24125],[1.71237,49.239019],[1.713226,49.236932],[1.71319,49.235056],[1.712115,49.23302],[1.714341,49.232615],[1.715298,49.233391],[1.72549,49.230126],[1.725341,49.22983],[1.729662,49.229197],[1.732147,49.228119],[1.733277,49.226541],[1.736212,49.226277],[1.736202,49.225358],[1.737983,49.225392],[1.738371,49.224058],[1.740441,49.224283],[1.740459,49.223669],[1.735907,49.222294],[1.734109,49.221277],[1.73568,49.216086],[1.732263,49.215634],[1.733682,49.210959],[1.729891,49.210284],[1.730141,49.209656],[1.721981,49.210009],[1.720219,49.206809],[1.714868,49.207444],[1.715996,49.204289],[1.715794,49.203008],[1.715377,49.202632],[1.715526,49.202663],[1.71841,49.202785],[1.71989,49.20154],[1.720913,49.202384],[1.72208,49.202503],[1.722347,49.201501],[1.722786,49.20143],[1.722527,49.20097],[1.725052,49.200779],[1.725242,49.199898],[1.724813,49.199871],[1.725867,49.194328],[1.723465,49.194066],[1.726876,49.19413],[1.72682,49.194958],[1.729134,49.195219],[1.729986,49.194711],[1.732548,49.195202],[1.737268,49.19479],[1.736445,49.19283],[1.73989,49.192075],[1.739442,49.190622],[1.740461,49.190554],[1.740251,49.188334],[1.741089,49.188369],[1.741003,49.185673],[1.744287,49.183307],[1.740102,49.18081],[1.742396,49.17984],[1.754858,49.174591],[1.776864,49.18415],[1.776392,49.184883],[1.77696,49.185004],[1.777522,49.184027],[1.780929,49.184324],[1.784799,49.185816],[1.786702,49.184164],[1.786369,49.183079],[1.788631,49.181487],[1.789704,49.18179],[1.790945,49.179969],[1.793628,49.180269],[1.793939,49.180305],[1.793502,49.182654],[1.79399,49.182733],[1.795474,49.185263],[1.803075,49.185108],[1.803313,49.18185],[1.801209,49.181775],[1.801016,49.182294],[1.799967,49.1823],[1.800259,49.180409],[1.803554,49.18095],[1.803551,49.179959],[1.807378,49.179947],[1.813082,49.178339],[1.814482,49.176129],[1.811297,49.174928],[1.811784,49.173972],[1.813378,49.174397],[1.813895,49.173632],[1.815958,49.173867],[1.815646,49.174948],[1.819209,49.175884],[1.819519,49.17695],[1.826821,49.17965],[1.829243,49.177697],[1.831922,49.177345],[1.832525,49.176007],[1.834227,49.175913],[1.834919,49.176888],[1.83585,49.176413],[1.834823,49.175436],[1.834716,49.174455],[1.837452,49.172801],[1.837378,49.1716],[1.835785,49.169724],[1.835182,49.166052],[1.834409,49.16514],[1.836422,49.164497],[1.838725,49.166844],[1.844683,49.170659],[1.845189,49.169964],[1.851032,49.17053],[1.8551,49.171944],[1.8568,49.173361],[1.857879,49.172233],[1.856543,49.171998],[1.858215,49.169962],[1.859117,49.170096],[1.867306,49.172046],[1.86782,49.17183],[1.876137,49.175053],[1.876703,49.171416],[1.880855,49.167295],[1.8823,49.167953],[1.883665,49.166092],[1.883047,49.162585],[1.887438,49.16302],[1.886869,49.16416],[1.88831,49.164711],[1.889749,49.165023],[1.890123,49.164114],[1.895108,49.165031],[1.894705,49.166094],[1.906972,49.168608],[1.920665,49.172214],[1.923828,49.172442],[1.924366,49.1736],[1.92639,49.17331],[1.931916,49.174206],[1.931454,49.175031],[1.932508,49.175011],[1.93331,49.173663],[1.934369,49.173536],[1.934967,49.171948],[1.934646,49.170544],[1.935401,49.169589],[1.935582,49.169964],[1.93941,49.170677],[1.941222,49.170575],[1.942325,49.170003],[1.945349,49.171523],[1.949742,49.170478],[1.96002,49.17349],[1.962364,49.174601],[1.964986,49.177167],[1.971665,49.181378],[1.97358,49.183861],[1.982307,49.181591],[1.983487,49.179932],[1.987939,49.179018],[1.988898,49.178461],[1.988641,49.177864],[1.990863,49.17661],[1.992178,49.176204],[1.993683,49.176942],[1.995367,49.176997],[1.997156,49.176084],[1.999346,49.175868],[1.999122,49.175406],[1.997602,49.174743],[1.998974,49.175192],[2.0,49.175759],[2.00268,49.176019],[2.004743,49.177192],[2.021778,49.188808],[2.025655,49.188827],[2.028418,49.187956],[2.03264,49.188887],[2.033566,49.188102],[2.035953,49.191107],[2.037998,49.19217],[2.039441,49.193442],[2.03966,49.193162],[2.04281,49.194385],[2.042475,49.194851],[2.043495,49.194842],[2.046227,49.196424],[2.047,49.195903],[2.047324,49.19869],[2.055789,49.198937],[2.066842,49.202861],[2.072507,49.204184],[2.072138,49.20434],[2.072633,49.206183],[2.074806,49.208844],[2.077104,49.208743],[2.077263,49.209907],[2.080737,49.210715],[2.080475,49.208846],[2.078967,49.205918],[2.080332,49.205822],[2.080686,49.206944],[2.08267,49.206853],[2.082362,49.205658],[2.083431,49.205563],[2.084705,49.205865],[2.087101,49.207728],[2.087918,49.209132],[2.090932,49.208642],[2.09036,49.20606],[2.091372,49.204993],[2.090455,49.201687],[2.092184,49.201198],[2.090332,49.198229],[2.092526,49.197474],[2.091852,49.196657],[2.092717,49.196251],[2.092653,49.19532],[2.088898,49.19615],[2.089048,49.193784],[2.092276,49.194178],[2.092467,49.193407],[2.095825,49.191642],[2.095325,49.190131],[2.09575,49.190073],[2.097719,49.189173],[2.10206,49.190444],[2.103617,49.188913],[2.109116,49.190925],[2.109949,49.189623],[2.109527,49.188878],[2.110524,49.187467],[2.111044,49.186981],[2.112817,49.187502],[2.113337,49.186544],[2.117938,49.187214],[2.122317,49.188956],[2.124999,49.190579],[2.1255,49.191641],[2.12599,49.191705],[2.125487,49.192849],[2.127979,49.193588],[2.13065,49.192527],[2.130002,49.19156],[2.131841,49.19066],[2.13522,49.191181],[2.135147,49.188299],[2.136915,49.180803],[2.136476,49.179005],[2.140762,49.178919],[2.141244,49.185893],[2.147284,49.18805],[2.148047,49.185031],[2.15209,49.183562],[2.152383,49.183819],[2.155761,49.18275],[2.156143,49.183116],[2.161702,49.179588],[2.164051,49.179767],[2.165018,49.178924],[2.161498,49.176004],[2.160392,49.17414],[2.155154,49.171096],[2.158034,49.17263],[2.162032,49.16868],[2.162912,49.167403],[2.162472,49.167148],[2.163829,49.166298],[2.168035,49.164851],[2.16879,49.163947],[2.169362,49.163918],[2.171052,49.164779],[2.171049,49.165688],[2.170429,49.166356],[2.171465,49.167858],[2.179279,49.170824],[2.18225,49.170381],[2.179715,49.17271],[2.179835,49.173214],[2.179367,49.173558],[2.174946,49.175004],[2.176093,49.176032],[2.181953,49.173676],[2.182442,49.174414],[2.186825,49.173415],[2.189055,49.173128],[2.192105,49.173646],[2.195306,49.173125],[2.199054,49.175297],[2.200788,49.174293],[2.202947,49.174061],[2.213169,49.175876],[2.212079,49.176525],[2.213963,49.177216],[2.213687,49.177531],[2.215568,49.17824],[2.218646,49.180685],[2.223773,49.173993],[2.226005,49.172643],[2.231505,49.170485],[2.235385,49.166994],[2.233817,49.166523],[2.234333,49.166027],[2.23001,49.164259],[2.230449,49.163768],[2.228669,49.163708],[2.224248,49.162382],[2.223071,49.159696],[2.216849,49.154133],[2.206682,49.158182],[2.216843,49.153893],[2.222304,49.152257],[2.23211,49.151432],[2.231793,49.152431],[2.233563,49.152662],[2.233555,49.151552],[2.238806,49.151984],[2.241223,49.151604],[2.241865,49.153415],[2.25036,49.153494],[2.25378,49.152633],[2.258759,49.155779],[2.260081,49.155328],[2.25946,49.156612],[2.26215,49.158381],[2.268166,49.155752],[2.26935,49.155997],[2.271254,49.157401],[2.275866,49.158808],[2.281195,49.158855],[2.282962,49.15967],[2.286374,49.159867],[2.285364,49.162032],[2.285085,49.165711],[2.287561,49.165885],[2.28697,49.167175],[2.288131,49.167367],[2.287871,49.167947],[2.289488,49.168037],[2.288806,49.17071],[2.29026,49.170744],[2.290184,49.171544],[2.294154,49.171713],[2.294819,49.173411],[2.295678,49.173327],[2.296626,49.17621],[2.299516,49.175964],[2.300104,49.181244],[2.301273,49.184041],[2.304446,49.183941],[2.30433,49.183653],[2.305746,49.183429],[2.30621,49.184825],[2.308228,49.184606],[2.308461,49.185405],[2.310907,49.184604],[2.310425,49.184989],[2.310801,49.186746],[2.313279,49.186344],[2.313205,49.185837],[2.321595,49.184372],[2.319553,49.182423],[2.321255,49.181894],[2.32063,49.181287],[2.323708,49.179943],[2.323199,49.179501],[2.325818,49.178734],[2.325584,49.178173],[2.326037,49.177665],[2.327624,49.177078],[2.327305,49.176476],[2.335541,49.170655],[2.341298,49.164889],[2.34595,49.162346],[2.350507,49.157216],[2.354233,49.154263],[2.353769,49.153942],[2.355354,49.153284],[2.35488,49.151749],[2.353424,49.151163],[2.354865,49.149498],[2.355981,49.148686],[2.356361,49.148954],[2.35834,49.148257],[2.357992,49.148062],[2.359269,49.147369],[2.360369,49.148252],[2.362007,49.15067],[2.362214,49.152539],[2.365037,49.152351],[2.364871,49.153548],[2.365304,49.154103],[2.366535,49.153968],[2.366644,49.154429],[2.366046,49.154803],[2.367164,49.15587],[2.369496,49.156186],[2.369708,49.156887],[2.370274,49.156849],[2.370498,49.157659],[2.370008,49.158713],[2.372763,49.159461],[2.380817,49.15787],[2.3912,49.149314],[2.400335,49.150784],[2.404282,49.151898],[2.413122,49.152418],[2.415612,49.151775],[2.415541,49.149891],[2.427665,49.149133],[2.435263,49.147693],[2.437586,49.146513],[2.440781,49.14591],[2.4389,49.141639],[2.435484,49.134066],[2.437555,49.134413],[2.440305,49.134178],[2.447703,49.136006],[2.457942,49.140819],[2.458873,49.140902],[2.462465,49.139257],[2.461138,49.136744],[2.457227,49.134581],[2.461191,49.136755],[2.461286,49.136142],[2.467595,49.136102],[2.467557,49.135013],[2.46883,49.134731],[2.469503,49.134681],[2.469713,49.135288],[2.470628,49.135044],[2.47154,49.135404],[2.475304,49.130983],[2.477511,49.13098],[2.475313,49.128462],[2.487312,49.12565],[2.499083,49.12224],[2.503013,49.117666],[2.491218,49.11142],[2.491366,49.110421],[2.490068,49.106246],[2.48409,49.107008],[2.505049,49.103755],[2.509805,49.103585],[2.510387,49.104295],[2.526986,49.100848],[2.531201,49.099478],[2.532963,49.119509],[2.53675,49.120114],[2.538524,49.121762],[2.54207,49.122248],[2.544063,49.121272],[2.543981,49.120104],[2.542414,49.119296],[2.539114,49.119344],[2.537727,49.117677],[2.539296,49.117558],[2.539556,49.11644],[2.547031,49.116362],[2.547679,49.120346],[2.549913,49.122552],[2.553315,49.124562],[2.556944,49.123733],[2.556999,49.121851],[2.555446,49.117805],[2.555942,49.117651],[2.552953,49.113978],[2.552397,49.114083],[2.551751,49.112426],[2.553428,49.110527],[2.555474,49.109054],[2.555951,49.109375],[2.557929,49.104281],[2.557673,49.102258],[2.55909,49.101998],[2.557604,49.100975],[2.558098,49.100351],[2.55753,49.100225],[2.558502,49.099147],[2.557933,49.09872],[2.559586,49.097541],[2.55991,49.097772],[2.560893,49.096994],[2.562353,49.097776],[2.564262,49.096298],[2.56522,49.094859],[2.56702,49.094087],[2.567899,49.094757],[2.568974,49.094323],[2.569585,49.09494],[2.570441,49.094567],[2.5711,49.095111],[2.57293,49.094283],[2.572138,49.093376],[2.574655,49.093375],[2.578584,49.091982],[2.579115,49.091559],[2.579063,49.090755],[2.580135,49.089843],[2.577743,49.087819],[2.580433,49.086697],[2.579297,49.085688],[2.578899,49.084253],[2.582693,49.082447],[2.582976,49.080665],[2.579914,49.079779],[2.583357,49.080751],[2.583559,49.079825],[2.58641,49.080547],[2.586614,49.079832],[2.590246,49.080035],[2.589725,49.079122],[2.590125,49.077866],[2.587144,49.076013],[2.584806,49.071934],[2.582686,49.069565],[2.575502,49.064983],[2.57095,49.060578],[2.574083,49.054312],[2.585708,49.058052],[2.586472,49.056917],[2.585904,49.056619],[2.58672,49.055855],[2.585715,49.055365],[2.584511,49.052833],[2.587946,49.049958],[2.595002,49.047746],[2.594542,49.047237],[2.577141,49.046681],[2.56933,49.039583],[2.56944,49.039521],[2.567926,49.039085],[2.569691,49.035365],[2.568789,49.035244],[2.568733,49.032815],[2.566254,49.032104],[2.566011,49.028592],[2.564034,49.028446],[2.564652,49.027981],[2.563093,49.027764],[2.558506,49.025813],[2.552629,49.025338],[2.545286,49.022905],[2.545263,49.022379],[2.541195,49.022383],[2.541191,49.023215],[2.534933,49.023799],[2.534656,49.021707],[2.535395,49.021651],[2.535348,49.020677],[2.534451,49.019863],[2.534278,49.018515],[2.537367,49.018458],[2.538814,49.012642],[2.540266,49.011669],[2.544853,49.011971],[2.545058,49.014687],[2.549085,49.014949],[2.550088,49.011978],[2.553373,49.011911],[2.553079,49.006782],[2.548819,49.006704],[2.54926,49.003162],[2.548077,49.00309],[2.547818,49.00505],[2.544082,49.004749],[2.54404,49.00564],[2.541152,49.005658],[2.541198,49.006288],[2.538391,49.006217],[2.538375,49.005322],[2.535728,49.005253],[2.535482,49.006586],[2.532189,49.005238],[2.530201,49.002303],[2.530444,49.001913],[2.529641,49.002003],[2.529152,49.000428],[2.527874,49.000452],[2.524412,48.996248],[2.523228,48.994255],[2.522779,48.992144],[2.520452,48.992282],[2.520154,48.9911],[2.518923,48.990952],[2.519202,48.987843],[2.516923,48.987614],[2.517006,48.98611],[2.512257,48.986049],[2.514719,48.982231],[2.509229,48.979818],[2.508816,48.980592],[2.506343,48.980308],[2.506718,48.979881],[2.504859,48.97879],[2.503764,48.979471],[2.501877,48.978535],[2.500374,48.977707],[2.50211,48.976568],[2.500239,48.975613],[2.500487,48.975435],[2.49579,48.975055],[2.497961,48.973863],[2.496176,48.972599],[2.49249,48.974586],[2.488321,48.971297],[2.490258,48.97007],[2.486772,48.967258],[2.480767,48.969813],[2.477798,48.966703],[2.47503,48.967668],[2.469496,48.963022],[2.467346,48.964306],[2.462947,48.959748],[2.460718,48.958396],[2.459489,48.955049],[2.455879,48.955668],[2.450307,48.954944],[2.445179,48.956741],[2.437088,48.955753],[2.435771,48.955075],[2.434101,48.955943],[2.432632,48.957564],[2.427022,48.959413],[2.422702,48.958895],[2.418812,48.957713],[2.418391,48.95759],[2.417436,48.959524],[2.413685,48.957738],[2.409669,48.957874],[2.409845,48.957037],[2.408336,48.957286],[2.407356,48.956092],[2.398903,48.959611],[2.38786,48.967346],[2.384588,48.970163],[2.384159,48.971126],[2.382441,48.971227],[2.372537,48.972369],[2.365742,48.974028],[2.36574,48.974034],[2.365292,48.973086],[2.361723,48.973965],[2.360092,48.972481],[2.358985,48.972869],[2.356424,48.969096],[2.356929,48.968782],[2.353466,48.965624],[2.352014,48.965907],[2.351576,48.966621],[2.350516,48.967024],[2.343865,48.968421],[2.339871,48.962552],[2.338933,48.962921],[2.337455,48.960909],[2.338078,48.960072],[2.336361,48.957739],[2.333363,48.955318],[2.327919,48.959516],[2.331464,48.960996],[2.322693,48.957525],[2.31977,48.958474],[2.313055,48.962327],[2.315914,48.964136],[2.313005,48.962411],[2.310371,48.961745],[2.30894,48.963509],[2.305085,48.962222],[2.301154,48.965475],[2.296599,48.967332],[2.298876,48.966305],[2.29033,48.961708],[2.28833,48.958384],[2.292215,48.951468],[2.28149,48.949755],[2.268613,48.946535],[2.258983,48.942542],[2.255578,48.940188],[2.247267,48.936597],[2.241766,48.932853],[2.23114,48.927733],[2.214197,48.916557],[2.211204,48.913984],[2.205976,48.91084],[2.200468,48.908625],[2.198213,48.912045],[2.203862,48.914539],[2.200816,48.918006],[2.199194,48.918971],[2.202389,48.920975],[2.20517,48.922034],[2.20407,48.924548],[2.203983,48.925069],[2.204618,48.92522],[2.203067,48.92741],[2.203781,48.9276],[2.202559,48.929236],[2.201931,48.931352],[2.199284,48.93527],[2.201022,48.936089],[2.202083,48.935652],[2.201644,48.937718],[2.202985,48.937752],[2.202783,48.939963],[2.205438,48.940144],[2.206048,48.940695],[2.205281,48.9414],[2.20627,48.946122],[2.205337,48.955952],[2.205867,48.949861],[2.200585,48.950359],[2.200365,48.949694],[2.193823,48.950582],[2.189762,48.950432],[2.190204,48.95177],[2.177948,48.954563],[2.175741,48.952132],[2.17333,48.953478],[2.176378,48.956377],[2.178219,48.959635],[2.178054,48.963267],[2.179054,48.966091],[2.177809,48.966604],[2.177169,48.967498],[2.177115,48.968481],[2.175626,48.971278],[2.175271,48.973582],[2.170545,48.978391],[2.166017,48.981107],[2.164683,48.982149],[2.156337,48.984895],[2.155704,48.985589],[2.147683,48.986609],[2.141629,48.988125],[2.12763,48.98906],[2.126256,48.989541],[2.123636,48.991659],[2.124011,48.993594],[2.120713,48.9933],[2.123562,49.003692],[2.12712,49.009672],[2.126703,49.012202],[2.121254,49.018332],[2.120986,49.018101],[2.110594,49.010351],[2.110232,49.008735],[2.097558,49.01131],[2.0796,49.016253],[2.079524,49.016187],[2.084862,49.014552],[2.082663,49.009453],[2.078397,49.007459],[2.07476,49.006679],[2.075287,49.002097],[2.071712,49.001401],[2.070503,49.003382],[2.067542,49.006222],[2.056569,49.01397],[2.064128,49.008459],[2.056963,49.005382],[2.054629,49.005138],[2.051047,49.003806],[2.049747,49.00296],[2.049876,49.002619],[2.042792,49.000586],[2.041456,49.001379],[2.028624,49.001656],[2.025891,49.000411],[2.02605,48.999844],[2.023651,48.997946],[2.013295,49.001271],[2.01187,49.003586],[2.011984,49.004595],[2.007279,49.008364],[2.004515,49.01019],[1.992191,49.021045],[1.986063,49.019798],[1.979664,49.018943],[1.974131,49.01948],[1.972522,49.020569],[1.966853,49.022584],[1.96406,49.025393],[1.961352,49.023142],[1.956727,49.021824],[1.955418,49.022895],[1.954746,49.024707],[1.949524,49.024291],[1.949191,49.025867],[1.94869,49.025824],[1.948473,49.026503],[1.946441,49.026483],[1.945389,49.025703],[1.944464,49.023789],[1.942292,49.023926],[1.937818,49.021914],[1.93227,49.027809],[1.925134,49.033253],[1.923501,49.035043],[1.92233,49.035048],[1.917998,49.03744],[1.918374,49.037962],[1.916491,49.039606],[1.912319,49.041473],[1.914036,49.045822],[1.908621,49.048011],[1.906526,49.051234],[1.90846,49.048181],[1.905719,49.047157],[1.906587,49.046113],[1.900815,49.043354],[1.901764,49.042212],[1.891143,49.039306],[1.894172,49.03729],[1.887632,49.035643],[1.883278,49.033709],[1.884569,49.031048],[1.882149,49.027775],[1.881647,49.025641],[1.881737,49.019732],[1.879864,49.019988],[1.877966,49.019583],[1.87555,49.017162],[1.870535,49.019544],[1.867892,49.016691],[1.861384,49.014012],[1.859277,49.013843],[1.860517,49.015325]],[[2.112663,49.1438],[2.111643,49.14411],[2.112091,49.143734],[2.112663,49.1438]],[[2.113357,49.121288],[2.117694,49.127936],[2.114261,49.122828],[2.113357,49.121288]],[[2.108537,49.111997],[2.107698,49.112621],[2.104707,49.113976],[2.10572,49.113507],[2.108537,49.111997]],[[2.110362,49.110639],[2.109863,49.11101],[2.110707,49.109714],[2.110362,49.110639]],[[2.119891,49.092318],[2.113186,49.095928],[2.117135,49.093726],[2.119891,49.092318]],[[2.084276,49.084041],[2.084292,49.084208],[2.084152,49.08423],[2.084276,49.084041]],[[2.122899,49.067025],[2.119917,49.064361],[2.120383,49.064699],[2.122899,49.067025]],[[2.127664,49.064327],[2.127005,49.063997],[2.126208,49.063571],[2.127664,49.064327]],[[2.135485,49.067125],[2.132172,49.066588],[2.131815,49.066409],[2.135756,49.067087],[2.135485,49.067125]],[[2.142445,49.066072],[2.141571,49.066455],[2.142345,49.066771],[2.140378,49.066434],[2.137729,49.066808],[2.141873,49.0661],[2.142445,49.066072]],[[2.149847,49.048525],[2.149459,49.048524],[2.150536,49.04729],[2.149847,49.048525]],[[2.152106,49.045927],[2.151814,49.045826],[2.152943,49.044532],[2.152106,49.045927]],[[2.155655,49.036217],[2.163067,49.040664],[2.149236,49.032472],[2.155655,49.036217]],[[2.169299,49.034924],[2.169216,49.034664],[2.169587,49.035166],[2.169299,49.034924]],[[2.179414,49.042766],[2.173727,49.038642],[2.170928,49.036292],[2.178201,49.04159],[2.179414,49.042766]],[[2.202486,49.060185],[2.20199,49.05875],[2.202279,49.058889],[2.202486,49.060185]],[[2.203731,49.061004],[2.204494,49.061531],[2.202486,49.060185],[2.203731,49.061004]],[[2.233762,49.051004],[2.229737,49.052479],[2.227457,49.052679],[2.231104,49.051906],[2.233762,49.051004]],[[2.237932,49.047565],[2.234494,49.049515],[2.23454,49.049421],[2.237932,49.047565]],[[2.263362,48.998127],[2.256446,48.999888],[2.265188,48.997556],[2.263362,48.998127]],[[2.273392,48.976675],[2.275168,48.976163],[2.273567,48.976811],[2.270314,48.977185],[2.273392,48.976675]],[[2.276277,48.96404],[2.274193,48.963957],[2.273102,48.963654],[2.276277,48.96404]],[[2.252207,49.001853],[2.250627,49.000803],[2.250185,49.000383],[2.252207,49.001853]],[[1.88286,49.161526],[1.882839,49.161408],[1.891233,49.163247],[1.88286,49.161526]],[[1.890931,49.1494],[1.893263,49.144018],[1.893358,49.143966],[1.890931,49.1494]],[[1.916453,49.143509],[1.925412,49.139108],[1.924516,49.139596],[1.916453,49.143509]],[[1.937563,49.134733],[1.933808,49.132121],[1.932275,49.131296],[1.932584,49.131137],[1.937563,49.134733]],[[1.931,49.129574],[1.931117,49.129403],[1.931625,49.129575],[1.931,49.129574]],[[1.932134,49.129576],[1.936619,49.125467],[1.932401,49.129577],[1.932134,49.129576]],[[1.938279,49.123778],[1.940164,49.123114],[1.940058,49.123253],[1.938279,49.123778]],[[1.940189,49.123082],[1.939105,49.122695],[1.940264,49.122984],[1.940189,49.123082]],[[1.951784,49.119803],[1.94984,49.119387],[1.950434,49.119295],[1.947787,49.117701],[1.951784,49.119803]],[[1.935955,49.105337],[1.932716,49.103019],[1.93329,49.103242],[1.935955,49.105337]],[[1.926047,49.102757],[1.930015,49.101086],[1.913853,49.107984],[1.908211,49.110323],[1.926047,49.102757]],[[1.906465,49.076927],[1.905139,49.075793],[1.904245,49.074651],[1.906465,49.076927]],[[1.899205,49.065399],[1.89921,49.065363],[1.899699,49.064649],[1.899205,49.065399]],[[1.672513,49.130372],[1.671933,49.130117],[1.671801,49.129628],[1.672513,49.130372]],[[1.674631,49.139299],[1.674563,49.139416],[1.67448,49.139315],[1.674631,49.139299]],[[1.688769,49.130524],[1.689084,49.130351],[1.688609,49.130666],[1.688769,49.130524]],[[1.716229,49.123599],[1.720224,49.123384],[1.706061,49.125069],[1.716229,49.123599]],[[1.740751,49.111681],[1.737669,49.115646],[1.738298,49.114564],[1.740751,49.111681]],[[1.73121,49.122152],[1.732463,49.119413],[1.732717,49.119154],[1.73121,49.122152]],[[1.730425,49.125339],[1.72998,49.124842],[1.730138,49.124497],[1.730425,49.125339]],[[1.74548,49.13838],[1.740845,49.137847],[1.741707,49.137904],[1.74548,49.13838]],[[1.771575,49.128767],[1.772144,49.129285],[1.771878,49.129356],[1.771575,49.128767]],[[1.798235,49.130114],[1.799398,49.132297],[1.798632,49.131404],[1.798235,49.130114]],[[1.83571,49.140673],[1.838273,49.139645],[1.83118,49.142576],[1.83571,49.140673]],[[1.840843,49.14349],[1.841781,49.144919],[1.838273,49.139645],[1.840843,49.14349]],[[1.82978,49.117975],[1.832398,49.12088],[1.831621,49.120069],[1.82978,49.117975]],[[1.827471,49.116511],[1.827608,49.116587],[1.82978,49.117975],[1.827471,49.116511]],[[1.867033,49.138282],[1.865722,49.139695],[1.867398,49.137526],[1.867033,49.138282]],[[1.881159,49.137813],[1.882878,49.137915],[1.882493,49.137786],[1.885773,49.138714],[1.881159,49.137813]],[[1.901229,49.128527],[1.901054,49.128559],[1.89652,49.127651],[1.901229,49.128527]],[[1.907438,49.127987],[1.905987,49.128183],[1.905642,49.128156],[1.907438,49.127987]],[[1.911977,49.126319],[1.909141,49.127756],[1.908723,49.127813],[1.911977,49.126319]],[[1.915177,49.126743],[1.916173,49.125908],[1.915099,49.126823],[1.911977,49.126319],[1.915177,49.126743]],[[1.929858,49.128974],[1.928401,49.128743],[1.923759,49.1269],[1.929858,49.128974]],[[1.893978,49.075013],[1.890156,49.071534],[1.890592,49.071874],[1.893978,49.075013]],[[1.894745,49.067095],[1.896252,49.066299],[1.898751,49.065094],[1.894745,49.067095]],[[1.648604,49.100638],[1.648906,49.100322],[1.649115,49.100491],[1.648604,49.100638]],[[1.644074,49.101815],[1.645367,49.101573],[1.643834,49.102016],[1.644074,49.101815]],[[1.642489,49.105521],[1.642618,49.105387],[1.642706,49.105645],[1.642489,49.105521]],[[1.65128,49.108478],[1.650072,49.108336],[1.643792,49.106267],[1.643017,49.105823],[1.65128,49.108478]],[[1.652159,49.108582],[1.652076,49.108572],[1.654109,49.106455],[1.652159,49.108582]],[[1.707598,49.093747],[1.71161,49.095091],[1.705928,49.093354],[1.703946,49.092274],[1.707598,49.093747]],[[1.740987,49.099165],[1.743626,49.099722],[1.743831,49.100026],[1.740985,49.099167],[1.740987,49.099165]],[[1.753837,49.090031],[1.742718,49.094324],[1.753727,49.090024],[1.753837,49.090031]],[[1.769573,49.087342],[1.76358,49.086739],[1.768395,49.086974],[1.769573,49.087342]],[[1.771071,49.088676],[1.769825,49.08742],[1.770407,49.087602],[1.771071,49.088676]],[[1.747652,49.07041],[1.746319,49.07295],[1.74633,49.072838],[1.748251,49.068231],[1.747652,49.07041]],[[1.755499,49.065225],[1.756703,49.063913],[1.757728,49.063462],[1.755499,49.065225]],[[1.698298,49.075958],[1.699445,49.076522],[1.699231,49.076638],[1.698298,49.075958]],[[1.701006,49.07793],[1.701895,49.078499],[1.701686,49.078426],[1.701006,49.07793]],[[1.703003,49.078889],[1.706021,49.078385],[1.703391,49.079025],[1.703003,49.078889]],[[1.709803,49.074466],[1.709409,49.074744],[1.710069,49.073457],[1.709803,49.074466]],[[1.711058,49.057208],[1.711108,49.058141],[1.711047,49.057261],[1.711058,49.057208]],[[1.711999,49.053346],[1.711835,49.0536],[1.711891,49.053338],[1.711999,49.053346]],[[1.746218,49.073985],[1.746246,49.0737],[1.747558,49.076619],[1.746218,49.073985]],[[1.65295,49.095595],[1.658058,49.093447],[1.651819,49.096115],[1.65295,49.095595]],[[1.690012,49.076071],[1.688019,49.077255],[1.684446,49.078564],[1.690012,49.076071]],[[1.792534,49.123052],[1.792392,49.122758],[1.792403,49.122276],[1.792534,49.123052]],[[1.823902,49.115556],[1.826114,49.115759],[1.826642,49.116052],[1.823902,49.115556]],[[1.841064,49.108581],[1.841017,49.108312],[1.841199,49.108438],[1.841064,49.108581]],[[1.846916,49.102744],[1.848557,49.101579],[1.85042,49.10032],[1.846916,49.102744]],[[1.745555,49.105466],[1.743966,49.100226],[1.744091,49.100411],[1.745555,49.105466]],[[1.742322,49.109836],[1.745195,49.107761],[1.74193,49.110296],[1.742322,49.109836]],[[1.905858,49.123372],[1.905488,49.123077],[1.905579,49.12309],[1.905858,49.123372]],[[1.908949,49.125466],[1.908097,49.125157],[1.907915,49.125012],[1.908949,49.125466]],[[1.66882,49.156504],[1.667531,49.15383],[1.668928,49.156625],[1.66882,49.156504]],[[1.675845,49.156877],[1.672959,49.157686],[1.674017,49.157219],[1.675845,49.156877]],[[1.681748,49.157218],[1.678089,49.156458],[1.678727,49.156339],[1.681748,49.157218]],[[1.685373,49.158722],[1.683933,49.157854],[1.684102,49.157903],[1.685373,49.158722]],[[1.721659,49.176368],[1.720032,49.175207],[1.724806,49.177644],[1.721659,49.176368]],[[1.71908,49.165773],[1.72043,49.165313],[1.717673,49.166289],[1.71908,49.165773]],[[1.773416,49.152143],[1.775473,49.152958],[1.775408,49.153008],[1.773416,49.152143]],[[1.784012,49.145388],[1.784031,49.144977],[1.784607,49.143384],[1.784012,49.145388]],[[1.67327,49.149165],[1.672877,49.149892],[1.672765,49.149742],[1.67327,49.149165]],[[1.676977,49.14598],[1.67517,49.148684],[1.676835,49.145929],[1.676977,49.14598]],[[1.669784,49.142243],[1.671639,49.144993],[1.669604,49.142251],[1.669784,49.142243]],[[1.857879,49.143785],[1.857865,49.143854],[1.857556,49.143353],[1.857879,49.143785]],[[1.833591,49.164173],[1.833526,49.163803],[1.834034,49.164696],[1.833591,49.164173]],[[1.710748,49.177522],[1.708972,49.177056],[1.710713,49.177497],[1.710748,49.177522]],[[1.710463,49.18077],[1.712578,49.183556],[1.711555,49.182527],[1.710463,49.18077]],[[1.937724,49.04827],[1.941271,49.048602],[1.941392,49.048688],[1.937724,49.04827]],[[1.942006,49.049125],[1.944755,49.05108],[1.94424,49.050961],[1.942006,49.049125]],[[1.944837,49.051099],[1.946794,49.049527],[1.94498,49.051132],[1.944837,49.051099]],[[1.983711,49.03478],[1.985403,49.034192],[1.987927,49.034017],[1.983711,49.03478]],[[1.990948,49.031324],[1.990797,49.031094],[1.992163,49.030242],[1.990948,49.031324]],[[1.992508,49.029934],[1.993553,49.028381],[1.99284,49.029638],[1.992508,49.029934]],[[2.030788,49.058225],[2.025804,49.055521],[2.027908,49.056466],[2.030901,49.058224],[2.030788,49.058225]],[[2.046823,49.056135],[2.056898,49.054392],[2.056768,49.054433],[2.046823,49.056135]],[[2.060473,49.053251],[2.066126,49.051252],[2.065535,49.051636],[2.060473,49.053251]],[[2.070502,49.048407],[2.080024,49.041815],[2.07228,49.047252],[2.070502,49.048407]],[[2.091126,49.025121],[2.091907,49.026429],[2.094164,49.033452],[2.091126,49.025121]],[[2.113785,49.025469],[2.117023,49.021918],[2.11606,49.023163],[2.113785,49.025469]],[[2.011587,49.017573],[2.010838,49.020648],[2.011019,49.019177],[2.011587,49.017573]],[[2.028815,49.019],[2.028903,49.018975],[2.029237,49.019671],[2.028815,49.019]],[[2.038738,49.02777],[2.03725,49.029472],[2.037435,49.029094],[2.038738,49.02777]],[[2.03664,49.03072],[2.036576,49.031266],[2.036479,49.031049],[2.03664,49.03072]],[[2.037109,49.032455],[2.038217,49.03397],[2.037411,49.03313],[2.037109,49.032455]],[[2.070928,49.019181],[2.071062,49.019099],[2.075677,49.01814],[2.070928,49.019181]],[[2.076445,49.01924],[2.078644,49.018751],[2.079252,49.018819],[2.076445,49.01924]],[[2.080755,49.018986],[2.080872,49.018999],[2.086444,49.020141],[2.080755,49.018986]],[[2.089151,49.02181],[2.089767,49.022843],[2.088893,49.021651],[2.089151,49.02181]],[[2.035729,49.038304],[2.034926,49.038668],[2.039719,49.035536],[2.035729,49.038304]],[[1.967096,49.155874],[1.966928,49.1557],[1.966663,49.155192],[1.967096,49.155874]],[[1.977086,49.162053],[1.976897,49.162035],[1.976415,49.160334],[1.977086,49.162053]],[[1.977173,49.162276],[1.977948,49.164262],[1.977833,49.164421],[1.977025,49.16242],[1.977173,49.162276]],[[1.990864,49.167439],[1.992659,49.169837],[1.991548,49.16836],[1.990864,49.167439]],[[2.006579,49.161573],[1.999035,49.160193],[1.997456,49.159549],[2.006579,49.161573]],[[2.013313,49.16514],[2.016863,49.163176],[2.013101,49.165362],[2.013313,49.16514]],[[2.048276,49.160793],[2.048787,49.157526],[2.048419,49.161744],[2.048276,49.160793]],[[2.054658,49.155064],[2.054287,49.155299],[2.054081,49.155319],[2.054658,49.155064]],[[2.058903,49.153193],[2.060881,49.152552],[2.058895,49.153197],[2.058903,49.153193]],[[2.060457,49.14785],[2.060503,49.147751],[2.060542,49.14994],[2.060457,49.14785]],[[2.060852,49.147004],[2.062953,49.145073],[2.060662,49.14741],[2.060852,49.147004]],[[2.067351,49.143097],[2.067324,49.143309],[2.066724,49.143379],[2.067351,49.143097]],[[2.080163,49.146748],[2.079971,49.146594],[2.080049,49.146451],[2.080163,49.146748]],[[2.11969,49.060083],[2.109868,49.051822],[2.120164,49.060336],[2.11969,49.060083]],[[2.096448,49.037493],[2.095784,49.036318],[2.0983,49.039666],[2.096448,49.037493]],[[1.991462,49.108287],[1.991357,49.1082],[1.989993,49.106588],[1.991462,49.108287]],[[2.027073,49.096552],[2.022155,49.09826],[2.028396,49.096039],[2.027073,49.096552]],[[2.036004,49.100594],[2.04028,49.099904],[2.039586,49.100071],[2.036075,49.10083],[2.036004,49.100594]],[[2.043895,49.082686],[2.045053,49.086804],[2.044433,49.085248],[2.043895,49.082686]],[[2.045334,49.082734],[2.044515,49.082764],[2.048939,49.084233],[2.043895,49.082686],[2.045334,49.082734]],[[1.959097,49.071694],[1.95999,49.071565],[1.965139,49.071267],[1.959097,49.071694]],[[2.016447,49.077072],[2.016033,49.077411],[2.015589,49.077436],[2.016686,49.076946],[2.016447,49.077072]],[[2.021654,49.074729],[2.022325,49.074429],[2.022623,49.074405],[2.021654,49.074729]],[[2.031344,49.067284],[2.03446,49.065839],[2.031863,49.067299],[2.031344,49.067284]],[[1.99216,49.055605],[1.992474,49.056227],[1.987707,49.050325],[1.99216,49.055605]],[[2.000688,49.058953],[1.992458,49.061212],[1.99468,49.060594],[2.000688,49.058953]],[[1.991987,49.080595],[1.994859,49.08264],[1.987014,49.077924],[1.991987,49.080595]],[[1.993539,49.084953],[1.994731,49.083936],[1.997764,49.081843],[1.993618,49.08493],[1.993539,49.084953]],[[1.990621,49.084935],[1.993293,49.085024],[1.992429,49.085273],[1.990621,49.084935]],[[1.975367,49.124807],[1.976151,49.124011],[1.975529,49.125125],[1.975367,49.124807]],[[1.975626,49.125315],[1.977535,49.126264],[1.97573,49.12552],[1.975626,49.125315]],[[1.982181,49.13092],[1.982051,49.131836],[1.982179,49.130896],[1.98223,49.130934],[1.982181,49.13092]],[[1.99646,49.132286],[2.000003,49.135657],[1.999131,49.135134],[1.99646,49.132286]],[[2.012122,49.132188],[2.005846,49.128154],[2.011423,49.131608],[2.012122,49.132188]],[[2.030269,49.130804],[2.029729,49.127584],[2.031064,49.134125],[2.030269,49.130804]],[[2.041734,49.108426],[2.044189,49.108204],[2.044219,49.108265],[2.041734,49.108426]],[[2.064873,49.135587],[2.064917,49.136124],[2.064769,49.135968],[2.064873,49.135587]],[[2.067392,49.141396],[2.067524,49.141718],[2.06743,49.142469],[2.067392,49.141396]],[[2.093445,49.117772],[2.088551,49.113928],[2.092005,49.116349],[2.093445,49.117772]],[[2.074402,49.103432],[2.072597,49.100594],[2.072235,49.099844],[2.074402,49.103432]],[[2.042121,49.102144],[2.041862,49.103489],[2.041872,49.102014],[2.042121,49.102144]],[[2.08504,49.091022],[2.083356,49.092597],[2.085267,49.090727],[2.08504,49.091022]],[[2.085523,49.090395],[2.085484,49.090446],[2.085449,49.088694],[2.085523,49.090395]],[[1.956319,49.137596],[1.958344,49.14153],[1.955535,49.136772],[1.956319,49.137596]],[[1.961068,49.144853],[1.962579,49.146925],[1.958344,49.14153],[1.961068,49.144853]],[[2.173799,48.986507],[2.17234,48.986008],[2.173834,48.986295],[2.173799,48.986507]],[[2.17468,48.986808],[2.174052,48.986593],[2.174114,48.986582],[2.17468,48.986808]],[[2.18305,48.979936],[2.182028,48.981735],[2.182046,48.981499],[2.18305,48.979936]],[[2.204452,48.989637],[2.204444,48.989629],[2.203839,48.986405],[2.204452,48.989637]],[[2.215049,48.981186],[2.210912,48.98209],[2.215649,48.980932],[2.215049,48.981186]],[[2.217812,48.980018],[2.216574,48.980542],[2.219417,48.97911],[2.217812,48.980018]],[[2.22831,48.973294],[2.226513,48.973879],[2.228692,48.972906],[2.22831,48.973294]],[[2.25119,48.979052],[2.245437,48.980048],[2.246759,48.979704],[2.25119,48.979052]],[[2.139346,49.013336],[2.12864,49.022873],[2.12239,49.029341],[2.13071,49.0207],[2.139346,49.013336]],[[2.14863,49.00799],[2.155213,49.004938],[2.155514,49.004849],[2.14863,49.00799]],[[2.196983,49.007746],[2.172982,49.014173],[2.197113,49.007677],[2.213243,49.001688],[2.196983,49.007746]],[[2.209229,48.997307],[2.214986,49.003522],[2.213243,49.001688],[2.209229,48.997307]],[[2.242082,48.992442],[2.244603,48.995084],[2.243688,48.994216],[2.242082,48.992442]],[[2.217244,49.031225],[2.217301,49.031254],[2.211012,49.030957],[2.217244,49.031225]],[[2.231379,49.04287],[2.23129,49.042898],[2.229168,49.042184],[2.231379,49.04287]],[[2.263772,49.135994],[2.262803,49.134483],[2.265435,49.13779],[2.263772,49.135994]],[[2.277034,49.126993],[2.279312,49.125735],[2.280056,49.125515],[2.277034,49.126993]],[[2.264497,49.124898],[2.25985,49.123656],[2.26235,49.124157],[2.264497,49.124898]],[[2.255222,49.110889],[2.256336,49.108318],[2.255939,49.109979],[2.255222,49.110889]],[[2.256456,49.10804],[2.256479,49.107988],[2.25821,49.106407],[2.256456,49.10804]],[[2.262173,49.105327],[2.262977,49.103646],[2.263007,49.104163],[2.262173,49.105327]],[[2.262949,49.103152],[2.260433,49.100775],[2.262941,49.103018],[2.262949,49.103152]],[[2.312054,49.097351],[2.308052,49.098562],[2.317924,49.095572],[2.312201,49.09757],[2.312054,49.097351]],[[2.339147,49.076885],[2.33944,49.076419],[2.339231,49.076906],[2.339147,49.076885]],[[2.338325,49.076615],[2.341429,49.076066],[2.33944,49.076419],[2.338325,49.076615]],[[2.33036,49.074423],[2.334527,49.075491],[2.338325,49.076615],[2.33036,49.074423]],[[2.368661,49.073103],[2.370261,49.072757],[2.375515,49.071753],[2.368661,49.073103]],[[2.394684,49.040537],[2.382781,49.041973],[2.394684,49.040526],[2.394684,49.040537]],[[2.399177,49.039701],[2.399189,49.039646],[2.401635,49.045603],[2.399177,49.039701]],[[2.399268,49.039281],[2.399331,49.038991],[2.400856,49.037479],[2.399268,49.039281]],[[2.400552,49.035413],[2.400517,49.035173],[2.400742,49.034568],[2.400552,49.035413]],[[2.401135,49.033511],[2.40132,49.033013],[2.407467,49.025674],[2.401135,49.033511]],[[2.41002,49.024148],[2.41074,49.024119],[2.410745,49.024123],[2.407467,49.025674],[2.41002,49.024148]],[[2.405722,48.989814],[2.404596,48.989015],[2.404452,48.988866],[2.405722,48.989814]],[[2.402626,48.986977],[2.402301,48.98664],[2.401148,48.984776],[2.402626,48.986977]],[[2.269848,49.074743],[2.269788,49.074514],[2.269893,49.074763],[2.269848,49.074743]],[[2.265949,49.067083],[2.266089,49.066987],[2.268634,49.0665],[2.265949,49.067083]],[[2.265283,49.06995],[2.265552,49.067356],[2.265682,49.067267],[2.265283,49.06995]],[[2.257063,49.075256],[2.256558,49.075125],[2.263429,49.073127],[2.257063,49.075256]],[[2.255286,49.071104],[2.255293,49.071103],[2.255481,49.071786],[2.255286,49.071104]],[[2.258912,49.06913],[2.257772,49.070455],[2.257362,49.070539],[2.258912,49.06913]],[[2.262436,49.058626],[2.262469,49.058719],[2.262045,49.060025],[2.262436,49.058626]],[[2.149782,49.10424],[2.149638,49.104292],[2.147666,49.101478],[2.149782,49.10424]],[[2.18985,49.161342],[2.197647,49.143552],[2.192331,49.155741],[2.18985,49.161342]],[[2.209649,49.145803],[2.20531,49.148861],[2.210856,49.144495],[2.209649,49.145803]],[[2.212117,49.139708],[2.21211,49.139799],[2.211156,49.137672],[2.212117,49.139708]],[[2.220413,49.127013],[2.220199,49.126806],[2.222024,49.127414],[2.220413,49.127013]],[[2.229328,49.129232],[2.226442,49.128514],[2.233529,49.129733],[2.229328,49.129232]],[[2.251238,49.126031],[2.248723,49.12619],[2.248852,49.126105],[2.251238,49.126031]],[[2.143185,49.066916],[2.145043,49.066921],[2.143462,49.066963],[2.143185,49.066916]],[[2.147577,49.066854],[2.158572,49.06444],[2.148346,49.066834],[2.147577,49.066854]],[[2.187303,49.071824],[2.189245,49.072226],[2.193384,49.07384],[2.187303,49.071824]],[[2.206042,49.086725],[2.20635,49.087078],[2.208287,49.090994],[2.206042,49.086725]],[[2.19996,49.064937],[2.20001,49.064937],[2.19806,49.065837],[2.19996,49.064937]],[[2.202724,49.064938],[2.204559,49.065337],[2.200448,49.064937],[2.202724,49.064938]],[[2.251879,49.067669],[2.251603,49.068079],[2.251922,49.066306],[2.251879,49.067669]],[[2.146293,49.094882],[2.142392,49.096945],[2.146417,49.094766],[2.146293,49.094882]],[[2.181345,49.108161],[2.183627,49.106968],[2.181032,49.108522],[2.181345,49.108161]],[[2.208325,49.09107],[2.208893,49.092218],[2.209137,49.093221],[2.208325,49.09107]],[[2.171769,49.086893],[2.171883,49.086783],[2.171527,49.087565],[2.171769,49.086893]],[[2.174436,49.088419],[2.173528,49.088174],[2.171527,49.087565],[2.174436,49.088419]],[[2.209361,49.094147],[2.209699,49.095537],[2.209668,49.095835],[2.209361,49.094147]],[[2.208947,49.104206],[2.208926,49.106125],[2.208848,49.105068],[2.208947,49.104206]],[[2.209322,49.111519],[2.209508,49.112417],[2.209366,49.112124],[2.209322,49.111519]],[[2.211777,49.119592],[2.212643,49.120872],[2.212446,49.120772],[2.211777,49.119592]],[[2.215762,49.122653],[2.215951,49.12275],[2.216515,49.123311],[2.215762,49.122653]],[[2.192303,49.164971],[2.196897,49.167059],[2.19806,49.167987],[2.192303,49.164971]],[[2.122361,49.15969],[2.12692,49.160085],[2.128222,49.160326],[2.122361,49.15969]],[[2.16329,49.15904],[2.16524,49.157427],[2.16498,49.158019],[2.16329,49.15904]],[[2.165517,49.156795],[2.165751,49.155932],[2.165794,49.156163],[2.165517,49.156795]],[[2.129071,49.153873],[2.133376,49.154369],[2.122177,49.153483],[2.129071,49.153873]],[[2.154447,49.133033],[2.156291,49.136273],[2.154608,49.133488],[2.154447,49.133033]],[[2.156958,49.137319],[2.158098,49.138693],[2.158056,49.138697],[2.156958,49.137319]],[[2.310686,48.971899],[2.310652,48.971944],[2.310673,48.971908],[2.310686,48.971899]],[[2.338908,48.980584],[2.335054,48.980972],[2.334171,48.98084],[2.338908,48.980584]],[[2.344208,48.978057],[2.344255,48.978021],[2.344144,48.978293],[2.344208,48.978057]],[[2.29164,48.976255],[2.291749,48.978851],[2.291632,48.976772],[2.29164,48.976255]],[[2.296505,48.974652],[2.301418,48.975402],[2.297639,48.975002],[2.296505,48.974652]],[[2.295693,48.974401],[2.295392,48.972432],[2.295834,48.974445],[2.295693,48.974401]],[[2.292927,48.968988],[2.293046,48.968934],[2.293037,48.969018],[2.292927,48.968988]],[[2.276474,48.975786],[2.281104,48.976781],[2.275944,48.975939],[2.276474,48.975786]],[[2.28224,48.977025],[2.282633,48.97751],[2.281759,48.976922],[2.28224,48.977025]],[[2.294768,49.027002],[2.293095,49.028735],[2.294696,49.026984],[2.294768,49.027002]],[[2.295829,49.027352],[2.295476,49.027177],[2.295665,49.027224],[2.295829,49.027352]],[[2.314432,49.014731],[2.314213,49.014742],[2.315489,49.013788],[2.314432,49.014731]],[[2.321579,49.009334],[2.322006,49.010173],[2.322119,49.012301],[2.321919,49.010638],[2.321579,49.009334]],[[2.363829,49.022551],[2.363949,49.02188],[2.363539,49.020058],[2.362074,49.016266],[2.364008,49.020824],[2.363992,49.022792],[2.363829,49.022551]],[[2.361932,49.011051],[2.361772,49.011522],[2.361699,49.011265],[2.361932,49.011051]],[[2.377691,49.01292],[2.376973,49.01268],[2.377044,49.012679],[2.377691,49.01292]],[[2.282153,49.002437],[2.281935,49.00228],[2.282215,49.002164],[2.282153,49.002437]],[[2.28338,49.000274],[2.281147,48.998164],[2.283213,48.999856],[2.28338,49.000274]],[[2.308589,49.001747],[2.313013,49.001883],[2.310788,49.002089],[2.308589,49.001747]],[[2.315315,49.00091],[2.315253,49.000999],[2.313013,49.001883],[2.315315,49.00091]],[[2.365828,48.980831],[2.367651,48.983818],[2.367637,48.983998],[2.365592,48.980581],[2.365828,48.980831]],[[2.316604,48.999071],[2.315985,48.999954],[2.316487,48.998999],[2.316604,48.999071]],[[2.365023,49.00683],[2.36633,49.005252],[2.36456,49.007859],[2.365023,49.00683]],[[2.294942,49.005904],[2.291501,49.006378],[2.290326,49.006532],[2.294942,49.005904]],[[2.29406,49.00926],[2.292923,49.007733],[2.29298,49.007729],[2.29406,49.00926]],[[2.281041,49.043614],[2.283705,49.045662],[2.284622,49.046553],[2.281041,49.043614]],[[2.284615,49.048691],[2.284461,49.048443],[2.284622,49.046553],[2.284615,49.048691]],[[2.284772,49.048943],[2.286195,49.050234],[2.284816,49.049013],[2.284772,49.048943]],[[2.290266,49.046305],[2.298203,49.049959],[2.297455,49.04981],[2.290266,49.046305]],[[2.335473,49.050361],[2.335066,49.051408],[2.334415,49.052967],[2.335473,49.050361]],[[2.321847,49.050828],[2.321845,49.050828],[2.324403,49.044585],[2.324821,49.044134],[2.321847,49.050828]],[[2.34203,49.033945],[2.340242,49.038416],[2.337236,49.045799],[2.34203,49.033945]],[[2.297336,49.028531],[2.29724,49.02858],[2.297182,49.028411],[2.297336,49.028531]],[[2.368665,49.028275],[2.364943,49.024197],[2.364345,49.023314],[2.368665,49.028275]],[[2.276073,49.072107],[2.274427,49.068733],[2.273453,49.066162],[2.276073,49.072107]],[[2.356464,49.146027],[2.358816,49.147006],[2.359058,49.1472],[2.356464,49.146027]],[[2.339493,49.146237],[2.339174,49.146077],[2.342356,49.146344],[2.339493,49.146237]],[[2.339243,49.130996],[2.338977,49.13059],[2.339459,49.131126],[2.339243,49.130996]],[[2.337395,49.128171],[2.336708,49.126643],[2.33814,49.12931],[2.337395,49.128171]],[[2.336786,49.123312],[2.339056,49.119879],[2.336141,49.124336],[2.336786,49.123312]],[[2.34453,49.117244],[2.348826,49.116776],[2.341336,49.117657],[2.34453,49.117244]],[[2.354587,49.121569],[2.354974,49.121966],[2.34898,49.117823],[2.354587,49.121569]],[[2.358263,49.125346],[2.363161,49.131835],[2.356856,49.1239],[2.358263,49.125346]],[[2.39132,49.137131],[2.392787,49.136894],[2.391174,49.137288],[2.39132,49.137131]],[[2.397574,49.13612],[2.398255,49.136106],[2.395649,49.136431],[2.397574,49.13612]],[[2.411274,49.133552],[2.411972,49.136008],[2.411275,49.134091],[2.411274,49.133552]],[[2.411065,49.131171],[2.412519,49.133102],[2.412391,49.133148],[2.411065,49.131171]],[[2.410454,49.128886],[2.410582,49.12906],[2.411065,49.131171],[2.410454,49.128886]],[[2.408193,49.126654],[2.409322,49.127338],[2.410367,49.128766],[2.408193,49.126654]],[[2.405763,49.128409],[2.407709,49.126361],[2.407761,49.126392],[2.405763,49.128409]],[[2.395301,49.113306],[2.396465,49.116344],[2.39604,49.115662],[2.395301,49.113306]],[[2.391454,49.110241],[2.389484,49.10836],[2.389413,49.108208],[2.395301,49.113306],[2.391454,49.110241]],[[2.38989,49.095051],[2.389758,49.094727],[2.39008,49.095208],[2.38989,49.095051]],[[2.390323,49.089115],[2.396202,49.086686],[2.401424,49.082978],[2.3966,49.086636],[2.390323,49.089115]],[[2.405138,49.082483],[2.404804,49.082582],[2.401424,49.082978],[2.405138,49.082483]],[[2.361489,49.107066],[2.36011,49.10763],[2.36213,49.106759],[2.361489,49.107066]],[[2.370026,49.108439],[2.369453,49.108505],[2.369315,49.10848],[2.370026,49.108439]],[[2.308503,49.099805],[2.312414,49.097886],[2.310915,49.098927],[2.308503,49.099805]],[[2.356504,49.118508],[2.356154,49.1206],[2.35641,49.118141],[2.356504,49.118508]],[[2.355446,49.114375],[2.355787,49.115706],[2.355478,49.114793],[2.355446,49.114375]],[[2.294346,49.151305],[2.293946,49.151265],[2.290354,49.149435],[2.294346,49.151305]],[[2.320387,49.148907],[2.320194,49.149114],[2.319946,49.149144],[2.320387,49.148907]],[[2.287205,49.136663],[2.282902,49.135664],[2.288733,49.136699],[2.287205,49.136663]],[[2.315603,49.134967],[2.315986,49.13772],[2.315525,49.135068],[2.315603,49.134967]],[[2.313172,49.140695],[2.31337,49.141951],[2.313143,49.14133],[2.313172,49.140695]],[[2.313513,49.14234],[2.314986,49.143436],[2.313626,49.14265],[2.313513,49.14234]],[[2.422271,49.041939],[2.418398,49.046491],[2.416373,49.048397],[2.422271,49.041939]],[[2.453665,49.039015],[2.447186,49.037996],[2.446759,49.037876],[2.453665,49.039015]],[[2.460154,49.044706],[2.460058,49.044702],[2.459673,49.044534],[2.460154,49.044706]],[[2.472014,49.042744],[2.474608,49.040926],[2.474002,49.041629],[2.474024,49.04174],[2.472014,49.042744]],[[2.4985,49.024036],[2.493767,49.016606],[2.49348,49.015894],[2.500029,49.026427],[2.4985,49.024036]],[[2.525349,49.026961],[2.52535,49.026961],[2.526051,49.030112],[2.526513,49.032411],[2.525349,49.026961]],[[2.529873,49.034011],[2.529517,49.03391],[2.528801,49.0318],[2.529873,49.034011]],[[2.42413,49.013004],[2.425562,49.014852],[2.424908,49.01409],[2.42413,49.013004]],[[2.442918,49.012672],[2.443375,49.011321],[2.442978,49.013847],[2.442918,49.012672]],[[2.4912,49.010247],[2.488119,49.0022],[2.491303,49.010503],[2.4912,49.010247]],[[2.486683,49.001865],[2.489034,49.002104],[2.488119,49.0022],[2.486683,49.001865]],[[2.483865,48.999458],[2.485756,48.999333],[2.487955,48.998873],[2.484242,48.999675],[2.483865,48.999458]],[[2.422137,48.973415],[2.424812,48.974942],[2.425247,48.976792],[2.424463,48.974855],[2.422137,48.973415]],[[2.443476,49.011021],[2.44673,49.010182],[2.443378,49.011311],[2.443476,49.011021]],[[2.483516,48.999257],[2.483499,48.999247],[2.478753,48.993965],[2.483516,48.999257]],[[2.418042,48.970051],[2.417382,48.969362],[2.42007,48.970893],[2.418042,48.970051]],[[2.411536,49.023394],[2.412158,49.022818],[2.418294,49.019713],[2.411536,49.023394]],[[2.422029,49.083808],[2.418719,49.083526],[2.422693,49.083848],[2.422029,49.083808]],[[2.46191,49.072698],[2.459234,49.073443],[2.463631,49.072204],[2.46191,49.072698]],[[2.472231,49.067865],[2.47227,49.07102],[2.472325,49.071083],[2.472047,49.071411],[2.472231,49.067865]],[[2.473068,49.072287],[2.472411,49.07118],[2.473835,49.072789],[2.473068,49.072287]],[[2.47617,49.075511],[2.47595,49.07518],[2.476426,49.075718],[2.47617,49.075511]],[[2.483906,49.088923],[2.482786,49.084522],[2.484011,49.088948],[2.483906,49.088923]],[[2.488408,49.089484],[2.486496,49.0894],[2.486633,49.08956],[2.485002,49.089179],[2.488408,49.089484]],[[2.487919,49.094394],[2.487578,49.094316],[2.487666,49.094308],[2.487976,49.09413],[2.487919,49.094394]],[[2.524567,49.098067],[2.520774,49.098402],[2.524679,49.098028],[2.524567,49.098067]],[[2.529254,49.07845],[2.529475,49.080563],[2.529029,49.076743],[2.529254,49.07845]],[[2.54646,49.070824],[2.544393,49.070967],[2.546268,49.070474],[2.54646,49.070824]],[[2.548717,49.073802],[2.547543,49.070749],[2.548554,49.072732],[2.548717,49.073802]],[[2.548587,49.074255],[2.548786,49.074256],[2.54916,49.076709],[2.548587,49.074255]],[[2.438927,49.067896],[2.446021,49.066955],[2.441346,49.067624],[2.438927,49.067896]],[[2.473325,49.055886],[2.481685,49.055344],[2.482656,49.055513],[2.473325,49.055886]],[[2.515461,49.064055],[2.518076,49.063752],[2.517292,49.063922],[2.515461,49.064055]],[[2.524561,49.064788],[2.528044,49.069287],[2.528061,49.069419],[2.524561,49.064788]],[[2.554233,49.059043],[2.551369,49.057073],[2.551535,49.056898],[2.554233,49.059043]],[[2.550941,49.056426],[2.55075,49.056362],[2.55075,49.056274],[2.550941,49.056426]],[[2.489315,49.086691],[2.489458,49.086986],[2.484741,49.083581],[2.489315,49.086691]],[[2.394632,49.099839],[2.398057,49.101364],[2.397954,49.10141],[2.394632,49.099839]],[[2.408691,49.097765],[2.413274,49.098836],[2.413223,49.098936],[2.408691,49.097765]],[[2.425935,49.091858],[2.425762,49.091672],[2.426757,49.091723],[2.425935,49.091858]],[[2.431231,49.096766],[2.433367,49.099115],[2.43288,49.098815],[2.431231,49.096766]],[[2.435644,49.10052],[2.44107,49.103741],[2.439517,49.102909],[2.435644,49.10052]],[[2.449754,49.100761],[2.456922,49.101037],[2.449799,49.100785],[2.449754,49.100761]],[[2.452492,49.103995],[2.45543,49.106749],[2.454559,49.10605],[2.452492,49.103995]],[[2.459262,49.109711],[2.46316,49.111836],[2.460496,49.110621],[2.459262,49.109711]],[[2.478394,49.097176],[2.477816,49.096042],[2.477896,49.095986],[2.478394,49.097176]],[[2.478209,49.095768],[2.478253,49.094246],[2.478526,49.094193],[2.478209,49.095768]],[[2.478756,49.094148],[2.479266,49.094049],[2.481079,49.09469],[2.478756,49.094148]],[[2.426123,49.087642],[2.426225,49.087924],[2.424791,49.087908],[2.426123,49.087642]],[[2.449406,49.095051],[2.450218,49.096109],[2.449315,49.095005],[2.449406,49.095051]],[[2.451064,49.092702],[2.449787,49.093079],[2.448589,49.092954],[2.451064,49.092702]],[[2.422961,49.087175],[2.423217,49.088942],[2.422991,49.0887],[2.422941,49.087167],[2.422961,49.087175]],[[2.455991,49.090598],[2.456894,49.091033],[2.459578,49.093223],[2.459162,49.093022],[2.455991,49.090598]]]}}
]
}
